ONEWEB-0525             
1 54143U 22138AG  23332.82794633 -.00000064  00000+0 -19329-3 0  9996
2 54143  87.9181 130.3548 0001105  89.5232 270.6027 13.19726565 53987
ONEWEB-0526             
1 54144U 22138AH  23332.93693748  .00000031  00000+0  44776-4 0  9991
2 54144  87.9179 130.3317 0001365  93.4015 266.7273 13.19727409 53976
ONEWEB-0529             
1 54145U 22138AJ  23332.94008635  .00000082  00000+0  17242-3 0  9991
2 54145  87.9187 130.3318 0001044  95.0486 265.0766 13.19724354 53998
ONEWEB-0531             
1 54146U 22138AK  23332.80328009  .00000000  00000+0 -31246-4 0  9999
2 54146  87.9229  99.8278 0002488 115.1254 245.0137 13.20772165 56369
ONEWEB-0535             
1 54147U 22138AL  23332.82162616 -.00000092  00000+0 -26105-3 0  9991
2 54147  87.9178 130.3540 0001820  93.6003 266.5338 13.19725866 53998
ONEWEB-0536             
1 54148U 22138AM  23332.79066452  .00000066  00000+0  13088-3 0  9994
2 54148  87.9227  99.8802 0002669  97.5371 262.6065 13.20771998 56353
GSLV R/B                
1 54149U 22138AN  23332.84301577  .00004589  00000+0  47857-3 0  9996
2 54149  87.3812  84.0476 0022174 280.8823  78.9909 14.89390055 59808
ONEWEB-0527             
1 54642U 22166A   23332.80273707 -.00000030  00000+0 -10485-3 0  9990
2 54642  87.9234  69.4168 0001656 106.6182 253.5134 13.21827003 48497
